[
    {
        "CCSDS_OMM_VERS": "2.0",
        "COMMENT": "GENERATED VIA SPACE-TRACK.ORG API",
        "CREATION_DATE": "2023-07-12T14:26:12",
        "ORIGINATOR": "18 SPCS",
        "OBJECT_NAME": "THOR ABLE DEB (YO)",
        "OBJECT_ID": "1960-002D",
        "CENTER_NAME": "EARTH",
        "REF_FRAME": "TEME",
        "TIME_SYSTEM": "UTC",
        "MEAN_ELEMENT_THEORY": "SGP4",
        "EPOCH": "2023-07-12T05:46:56.233632",
        "MEAN_MOTION": "14.86572856",
        "ECCENTRICITY": "0.00322670",
        "INCLINATION": "48.1650",
        "RA_OF_ASC_NODE": "283.2922",
        "ARG_OF_PERICENTER": "152.1481",
        "MEAN_ANOMALY": "208.1168",
        "EPHEMERIS_TYPE": "0",
        "CLASSIFICATION_TYPE": "U",
        "NORAD_CAT_ID": "115",
        "ELEMENT_SET_NO": "999",
        "REV_AT_EPOCH": "37932",
        "BSTAR": "0.00032427000000",
        "MEAN_MOTION_DOT": "0.00002703",
        "MEAN_MOTION_DDOT": "0.0000000000000",
        "SEMIMAJOR_AXIS": "6986.790",
        "PERIOD": "96.867",
        "APOAPSIS": "631.200",
        "PERIAPSIS": "586.111",
        "OBJECT_TYPE": "DEBRIS",
        "RCS_SIZE": "SMALL",
        "COUNTRY_CODE": "US",
        "LAUNCH_DATE": "1960-04-01",
        "SITE": "AFETR",
        "DECAY_DATE": null,
        "FILE": "3955933",
        "GP_ID": "234866943",
        "TLE_LINE0": "0 THOR ABLE DEB (YO)",
        "TLE_LINE1": "1   115U 60002D   23193.24092863  .00002703  00000-0  32427-3 0  9990",
        "TLE_LINE2": "2   115  48.1650 283.2922 0032267 152.1481 208.1168 14.86572856379325"
    },
    {
        "CCSDS_OMM_VERS": "2.0",
        "COMMENT": "GENERATED VIA SPACE-TRACK.ORG API",
        "CREATION_DATE": "2023-07-12T22:46:13",
        "ORIGINATOR": "18 SPCS",
        "OBJECT_NAME": "TRANSIT 4A",
        "OBJECT_ID": "1961-015A",
        "CENTER_NAME": "EARTH",
        "REF_FRAME": "TEME",
        "TIME_SYSTEM": "UTC",
        "MEAN_ELEMENT_THEORY": "SGP4",
        "EPOCH": "2023-07-12T21:19:03.680256",
        "MEAN_MOTION": "13.91927667",
        "ECCENTRICITY": "0.00815160",
        "INCLINATION": "66.8109",
        "RA_OF_ASC_NODE": "348.9580",
        "ARG_OF_PERICENTER": "300.7710",
        "MEAN_ANOMALY": "58.5361",
        "EPHEMERIS_TYPE": "0",
        "CLASSIFICATION_TYPE": "U",
        "NORAD_CAT_ID": "116",
        "ELEMENT_SET_NO": "999",
        "REV_AT_EPOCH": "14822",
        "BSTAR": "0.00008409400000",
        "MEAN_MOTION_DOT": "0.00000033",
        "MEAN_MOTION_DDOT": "0.0000000000000",
        "SEMIMAJOR_AXIS": "7300.020",
        "PERIOD": "103.454",
        "APOAPSIS": "981.392",
        "PERIAPSIS": "862.378",
        "OBJECT_TYPE": "PAYLOAD",
        "RCS_SIZE": "MEDIUM",
        "COUNTRY_CODE": "US",
        "LAUNCH_DATE": "1961-06-29",
        "SITE": "AFETR",
        "DECAY_DATE": null,
        "FILE": "3956411",
        "GP_ID": "234878097",
        "TLE_LINE0": "0 TRANSIT 4A",
        "TLE_LINE1": "1   116U 61015A   23193.88823704  .00000033  00000-0  84094-4 0  9994",
        "TLE_LINE2": "2   116  66.8109 348.9580 0081516 300.7710  58.5361 13.91927667148222"
    },
    {
        "CCSDS_OMM_VERS": "2.0",
        "COMMENT": "GENERATED VIA SPACE-TRACK.ORG API",
        "CREATION_DATE": "2023-07-12T14:46:12",
        "ORIGINATOR": "18 SPCS",
        "OBJECT_NAME": "SOLRAD 3\/INJUN 1",
        "OBJECT_ID": "1961-015B",
        "CENTER_NAME": "EARTH",
        "REF_FRAME": "TEME",
        "TIME_SYSTEM": "UTC",
        "MEAN_ELEMENT_THEORY": "SGP4",
        "EPOCH": "2023-07-12T10:12:47.668608",
        "MEAN_MOTION": "13.89952663",
        "ECCENTRICITY": "0.00818150",
        "INCLINATION": "66.8130",
        "RA_OF_ASC_NODE": "95.0732",
        "ARG_OF_PERICENTER": "322.6742",
        "MEAN_ANOMALY": "36.8668",
        "EPHEMERIS_TYPE": "0",
        "CLASSIFICATION_TYPE": "U",
        "NORAD_CAT_ID": "117",
        "ELEMENT_SET_NO": "999",
        "REV_AT_EPOCH": "14567",
        "BSTAR": "0.00003963700000",
        "MEAN_MOTION_DOT": "-0.00000026",
        "MEAN_MOTION_DDOT": "0.0000000000000",
        "SEMIMAJOR_AXIS": "7306.934",
        "PERIOD": "103.601",
        "APOAPSIS": "988.580",
        "PERIAPSIS": "869.017",
        "OBJECT_TYPE": "PAYLOAD",
        "RCS_SIZE": "MEDIUM",
        "COUNTRY_CODE": "US",
        "LAUNCH_DATE": "1961-06-29",
        "SITE": "AFETR",
        "DECAY_DATE": null,
        "FILE": "3956045",
        "GP_ID": "234869558",
        "TLE_LINE0": "0 SOLRAD 3\/INJUN 1",
        "TLE_LINE1": "1   117U 61015B   23193.42555172 -.00000026  00000-0  39637-4 0  9992",
        "TLE_LINE2": "2   117  66.8130  95.0732 0081815 322.6742  36.8668 13.89952663145672"
    },
    {
        "CCSDS_OMM_VERS": "2.0",
        "COMMENT": "GENERATED VIA SPACE-TRACK.ORG API",
        "CREATION_DATE": "2023-07-12T14:46:12",
        "ORIGINATOR": "18 SPCS",
        "OBJECT_NAME": "THOR ABLESTAR R\/B",
        "OBJECT_ID": "1961-015C",
        "CENTER_NAME": "EARTH",
        "REF_FRAME": "TEME",
        "TIME_SYSTEM": "UTC",
        "MEAN_ELEMENT_THEORY": "SGP4",
        "EPOCH": "2023-07-12T11:03:02.232000",
        "MEAN_MOTION": "14.01968115",
        "ECCENTRICITY": "0.00888650",
        "INCLINATION": "66.7618",
        "RA_OF_ASC_NODE": "209.9318",
        "ARG_OF_PERICENTER": "302.9815",
        "MEAN_ANOMALY": "56.2749",
        "EPHEMERIS_TYPE": "0",
        "CLASSIFICATION_TYPE": "U",
        "NORAD_CAT_ID": "118",
        "ELEMENT_SET_NO": "999",
        "REV_AT_EPOCH": "16652",
        "BSTAR": "0.00012174000000",
        "MEAN_MOTION_DOT": "0.00000113",
        "MEAN_MOTION_DDOT": "0.0000000000000",
        "SEMIMAJOR_AXIS": "7265.125",
        "PERIOD": "102.713",
        "APOAPSIS": "951.551",
        "PERIAPSIS": "822.428",
        "OBJECT_TYPE": "ROCKET BODY",
        "RCS_SIZE": "LARGE",
        "COUNTRY_CODE": "US",
        "LAUNCH_DATE": "1961-06-29",
        "SITE": "AFETR",
        "DECAY_DATE": null,
        "FILE": "3956037",
        "GP_ID": "234869435",
        "TLE_LINE0": "0 THOR ABLESTAR R\/B",
        "TLE_LINE1": "1   118U 61015C   23193.46044250  .00000113  00000-0  12174-3 0  9999",
        "TLE_LINE2": "2   118  66.7618 209.9318 0088865 302.9815  56.2749 14.01968115166520"
    },
    {
        "CCSDS_OMM_VERS": "2.0",
        "COMMENT": "GENERATED VIA SPACE-TRACK.ORG API",
        "CREATION_DATE": "2023-07-10T22:36:13",
        "ORIGINATOR": "18 SPCS",
        "OBJECT_NAME": "THOR ABLESTAR DEB",
        "OBJECT_ID": "1961-015D",
        "CENTER_NAME": "EARTH",
        "REF_FRAME": "TEME",
        "TIME_SYSTEM": "UTC",
        "MEAN_ELEMENT_THEORY": "SGP4",
        "EPOCH": "2023-07-10T16:30:40.905216",
        "MEAN_MOTION": "14.24207762",
        "ECCENTRICITY": "0.01093860",
        "INCLINATION": "66.7288",
        "RA_OF_ASC_NODE": "292.3612",
        "ARG_OF_PERICENTER": "313.9638",
        "MEAN_ANOMALY": "45.2473",
        "EPHEMERIS_TYPE": "0",
        "CLASSIFICATION_TYPE": "U",
        "NORAD_CAT_ID": "119",
        "ELEMENT_SET_NO": "999",
        "REV_AT_EPOCH": "20585",
        "BSTAR": "0.00009561800000",
        "MEAN_MOTION_DOT": "0.00000150",
        "MEAN_MOTION_DDOT": "0.0000000000000",
        "SEMIMAJOR_AXIS": "7189.295",
        "PERIOD": "101.109",
        "APOAPSIS": "889.800",
        "PERIAPSIS": "732.519",
        "OBJECT_TYPE": "DEBRIS",
        "RCS_SIZE": "MEDIUM",
        "COUNTRY_CODE": "US",
        "LAUNCH_DATE": "1961-06-29",
        "SITE": "AFETR",
        "DECAY_DATE": null,
        "FILE": "3954696",
        "GP_ID": "234837708",
        "TLE_LINE0": "0 THOR ABLESTAR DEB",
        "TLE_LINE1": "1   119U 61015D   23191.68797344  .00000150  00000-0  95618-4 0  9997",
        "TLE_LINE2": "2   119  66.7288 292.3612 0109386 313.9638  45.2473 14.24207762205855"
    },
    {
        "CCSDS_OMM_VERS": "2.0",
        "COMMENT": "GENERATED VIA SPACE-TRACK.ORG API",
        "CREATION_DATE": "2023-07-12T22:16:13",
        "ORIGINATOR": "18 SPCS",
        "OBJECT_NAME": "THOR ABLESTAR DEB",
        "OBJECT_ID": "1961-015E",
        "CENTER_NAME": "EARTH",
        "REF_FRAME": "TEME",
        "TIME_SYSTEM": "UTC",
        "MEAN_ELEMENT_THEORY": "SGP4",
        "EPOCH": "2023-07-12T18:30:10.330560",
        "MEAN_MOTION": "14.26496362",
        "ECCENTRICITY": "0.01088090",
        "INCLINATION": "66.7074",
        "RA_OF_ASC_NODE": "343.0336",
        "ARG_OF_PERICENTER": "56.7105",
        "MEAN_ANOMALY": "304.4357",
        "EPHEMERIS_TYPE": "0",
        "CLASSIFICATION_TYPE": "U",
        "NORAD_CAT_ID": "120",
        "ELEMENT_SET_NO": "999",
        "REV_AT_EPOCH": "19592",
        "BSTAR": "0.00030868000000",
        "MEAN_MOTION_DOT": "0.00000708",
        "MEAN_MOTION_DDOT": "0.0000000000000",
        "SEMIMAJOR_AXIS": "7181.603",
        "PERIOD": "100.947",
        "APOAPSIS": "881.610",
        "PERIAPSIS": "725.326",
        "OBJECT_TYPE": "DEBRIS",
        "RCS_SIZE": "MEDIUM",
        "COUNTRY_CODE": "US",
        "LAUNCH_DATE": "1961-06-29",
        "SITE": "AFETR",
        "DECAY_DATE": null,
        "FILE": "3956234",
        "GP_ID": "234874351",
        "TLE_LINE0": "0 THOR ABLESTAR DEB",
        "TLE_LINE1": "1   120U 61015E   23193.77095290  .00000708  00000-0  30868-3 0  9996",
        "TLE_LINE2": "2   120  66.7074 343.0336 0108809  56.7105 304.4357 14.26496362195922"
    }]